start=new Date('2021-11-19T00:00:00.000Z').valueOf();
sats=[{"ARG_OF_PERICENTER":"79.0201","EPHEMERIS_TYPE":"0","LAUNCH_DATE":"2019-11-11","MEAN_MOTION_DDOT":"0.0000000000000","CENTER_NAME":"EARTH","BSTAR":"0.00003623000000","ECCENTRICITY":"0.00013540","OBJECT_NAME":"STARLINK-1068","ELEMENT_SET_NO":"999","OBJECT_ID":"2019-074BM","INCLINATION":"53.0557","SEMIMAJOR_AXIS":"6925.355","PERIOD":"95.592","TLE_LINE1":"1 44772U 19074BM  21322.57996093  .00000258  00000-0  36230-4 0  9996","REF_FRAME":"TEME","MEAN_MOTION":"15.06398034","RA_OF_ASC_NODE":"64.0963","MEAN_ANOMALY":"281.0940","PERIAPSIS":"546.282","MEAN_ELEMENT_THEORY":"SGP4","RCS_SIZE":"LARGE","TLE_LINE2":"2 44772  53.0557  64.0963 0001354  79.0201 281.0940 15.06398034111513","CLASSIFICATION_TYPE":"U","OBJECT_TYPE":"PAYLOAD","FILE":"3218461","TIME_SYSTEM":"UTC","SITE":"AFETR","COUNTRY_CODE":"US","MEAN_MOTION_DOT":"0.00000258","DECAY_DATE":null,"APOAPSIS":"548.157","NORAD_CAT_ID":"44772","GP_ID":"190008818","EPOCH":"2021-11-18T13:55:08.624352","REV_AT_EPOCH":"11151"},{"MEAN_ANOMALY":"287.3386","PERIAPSIS":"545.860","MEAN_ELEMENT_THEORY":"SGP4","RCS_SIZE":"LARGE","TLE_LINE2":"2 44914  53.0530 204.9192 0001984  72.7820 287.3386 15.06393294102861","CLASSIFICATION_TYPE":"U","ARG_OF_PERICENTER":"72.7820","EPHEMERIS_TYPE":"0","LAUNCH_DATE":"2020-01-07","MEAN_MOTION_DDOT":"0.0000000000000","CENTER_NAME":"EARTH","BSTAR":"0.00012713000000","ECCENTRICITY":"0.00019840","OBJECT_NAME":"STARLINK-1073","ELEMENT_SET_NO":"999","INCLINATION":"53.0530","OBJECT_ID":"2020-001A","SEMIMAJOR_AXIS":"6925.369","TLE_LINE1":"1 44914U 20001A   21322.39751202  .00001612  00000-0  12713-3 0  9991","PERIOD":"95.593","REF_FRAME":"TEME","MEAN_MOTION":"15.06393294","RA_OF_ASC_NODE":"204.9192","DECAY_DATE":null,"APOAPSIS":"548.608","NORAD_CAT_ID":"44914","GP_ID":"190009834","EPOCH":"2021-11-18T09:32:25.038528","REV_AT_EPOCH":"10286","OBJECT_TYPE":"PAYLOAD","FILE":"3218461","TIME_SYSTEM":"UTC","SITE":"AFETR","COUNTRY_CODE":"US","MEAN_MOTION_DOT":"0.00001612"},{"ARG_OF_PERICENTER":"73.9356","EPHEMERIS_TYPE":"0","LAUNCH_DATE":"2020-01-07","MEAN_MOTION_DDOT":"0.0000000000000","CENTER_NAME":"EARTH","BSTAR":"0.00006700300000","ECCENTRICITY":"0.00016350","OBJECT_NAME":"STARLINK-1084","ELEMENT_SET_NO":"999","OBJECT_ID":"2020-001B","INCLINATION":"53.0520","SEMIMAJOR_AXIS":"6925.357","PERIOD":"95.592","TLE_LINE1":"1 44915U 20001B   21322.69237937  .00000717  00000-0  67003-4 0  9997","REF_FRAME":"TEME","RA_OF_ASC_NODE":"203.5958","MEAN_MOTION":"15.06397370","MEAN_ANOMALY":"286.1813","PERIAPSIS":"546.089","MEAN_ELEMENT_THEORY":"SGP4","RCS_SIZE":"LARGE","TLE_LINE2":"2 44915  53.0520 203.5958 0001635  73.9356 286.1813 15.06397370102913","CLASSIFICATION_TYPE":"U","OBJECT_TYPE":"PAYLOAD","FILE":"3218669","TIME_SYSTEM":"UTC","SITE":"AFETR","COUNTRY_CODE":"US","MEAN_MOTION_DOT":"0.00000717","APOAPSIS":"548.354","DECAY_DATE":null,"NORAD_CAT_ID":"44915","GP_ID":"190036422","EPOCH":"2021-11-18T16:37:01.577568","REV_AT_EPOCH":"10291"},{"CLASSIFICATION_TYPE":"U","TLE_LINE2":"2 44916  53.0500 152.7990 0003185  21.0580 339.0568 15.71444651103641","RCS_SIZE":"LARGE","MEAN_ELEMENT_THEORY":"SGP4","MEAN_ANOMALY":"339.0568","PERIAPSIS":"352.625","MEAN_MOTION":"15.71444651","RA_OF_ASC_NODE":"152.7990","TLE_LINE1":"1 44916U 20001C   21322.91250906 -.00001520  00000-0 -69988-5 0  9994","REF_FRAME":"TEME","PERIOD":"91.635","SEMIMAJOR_AXIS":"6732.904","INCLINATION":"53.0500","OBJECT_ID":"2020-001C","ELEMENT_SET_NO":"999","ECCENTRICITY":"0.00031850","OBJECT_NAME":"STARLINK-1097","BSTAR":"-0.00000699880000","CENTER_NAME":"EARTH","MEAN_MOTION_DDOT":"0.0000000000000","EPHEMERIS_TYPE":"0","LAUNCH_DATE":"2020-01-07","ARG_OF_PERICENTER":"21.0580","REV_AT_EPOCH":"10364","EPOCH":"2021-11-18T21:54:00.782784","GP_ID":"190036672","NORAD_CAT_ID":"44916","DECAY_DATE":null,"APOAPSIS":"356.914","MEAN_MOTION_DOT":"-0.00001520","COUNTRY_CODE":"US","SITE":"AFETR","TIME_SYSTEM":"UTC","FILE":"3218669","OBJECT_TYPE":"PAYLOAD"},{"DECAY_DATE":null,"APOAPSIS":"548.411","GP_ID":"190037923","NORAD_CAT_ID":"44917","EPOCH":"2021-11-18T19:53:25.267488","REV_AT_EPOCH":"10293","FILE":"3218669","OBJECT_TYPE":"PAYLOAD","TIME_SYSTEM":"UTC","SITE":"AFETR","COUNTRY_CODE":"US","MEAN_MOTION_DOT":"-0.00000397","PERIAPSIS":"546.041","MEAN_ANOMALY":"279.3252","MEAN_ELEMENT_THEORY":"SGP4","TLE_LINE2":"2 44917  53.0531 202.9865 0001711  80.7930 279.3252 15.06396004102932","RCS_SIZE":"LARGE","CLASSIFICATION_TYPE":"U","ARG_OF_PERICENTER":"80.7930","EPHEMERIS_TYPE":"0","LAUNCH_DATE":"2020-01-07","CENTER_NAME":"EARTH","MEAN_MOTION_DDOT":"0.0000000000000","OBJECT_NAME":"STARLINK-1098","ECCENTRICITY":"0.00017110","BSTAR":"-0.00000772430000","ELEMENT_SET_NO":"999","INCLINATION":"53.0531","OBJECT_ID":"2020-001D","TLE_LINE1":"1 44917U 20001D   21322.82876467 -.00000397  00000-0 -77243-5 0  9995","REF_FRAME":"TEME","PERIOD":"95.592","SEMIMAJOR_AXIS":"6925.361","RA_OF_ASC_NODE":"202.9865","MEAN_MOTION":"15.06396004"},{"SITE":"AFETR","TIME_SYSTEM":"UTC","OBJECT_TYPE":"PAYLOAD","FILE":"3218669","MEAN_MOTION_DOT":"0.00000545","COUNTRY_CODE":"US","EPOCH":"2021-11-18T20:09:20.242368","NORAD_CAT_ID":"44918","GP_ID":"190038174","DECAY_DATE":null,"APOAPSIS":"548.477","REV_AT_EPOCH":"10367","BSTAR":"0.00005550900000","ECCENTRICITY":"0.00018000","OBJECT_NAME":"STARLINK-1099","MEAN_MOTION_DDOT":"0.0000000000000","CENTER_NAME":"EARTH","EPHEMERIS_TYPE":"0","LAUNCH_DATE":"2020-01-07","ARG_OF_PERICENTER":"77.5370","MEAN_MOTION":"15.06394440","RA_OF_ASC_NODE":"202.9390","SEMIMAJOR_AXIS":"6925.366","TLE_LINE1":"1 44918U 20001E   21322.83981762  .00000545  00000-0  55509-4 0  9995","REF_FRAME":"TEME","PERIOD":"95.592","OBJECT_ID":"2020-001E","INCLINATION":"53.0545","ELEMENT_SET_NO":"999","MEAN_ELEMENT_THEORY":"SGP4","MEAN_ANOMALY":"282.5820","PERIAPSIS":"545.984","CLASSIFICATION_TYPE":"U","RCS_SIZE":"LARGE","TLE_LINE2":"2 44918  53.0545 202.9390 0001800  77.5370 282.5820 15.06394440103673"},{"ARG_OF_PERICENTER":"294.3168","EPHEMERIS_TYPE":"0","LAUNCH_DATE":"2020-01-07","CENTER_NAME":"EARTH","MEAN_MOTION_DDOT":"0.0011542000000","ECCENTRICITY":"0.00045240","OBJECT_NAME":"STARLINK-1101","BSTAR":"0.00230480000000","ELEMENT_SET_NO":"999","OBJECT_ID":"2020-001F","INCLINATION":"53.0449","PERIOD":"89.839","TLE_LINE1":"1 44919U 20001F   21323.00134200  .01407196  11542-2  23048-2 0  9993","REF_FRAME":"TEME","SEMIMAJOR_AXIS":"6644.605","RA_OF_ASC_NODE":"153.1402","MEAN_MOTION":"16.02872738","PERIAPSIS":"263.464","MEAN_ANOMALY":"65.7323","MEAN_ELEMENT_THEORY":"SGP4","TLE_LINE2":"2 44919  53.0449 153.1402 0004524 294.3168  65.7323 16.02872738103642","RCS_SIZE":"LARGE","CLASSIFICATION_TYPE":"U","FILE":"3218656","OBJECT_TYPE":"PAYLOAD","TIME_SYSTEM":"UTC","SITE":"AFETR","COUNTRY_CODE":"US","MEAN_MOTION_DOT":"0.01407196","APOAPSIS":"269.476","DECAY_DATE":null,"GP_ID":"190017520","NORAD_CAT_ID":"44919","EPOCH":"2021-11-19T00:01:55.948800","REV_AT_EPOCH":"10364"},{"GP_ID":"190037172","NORAD_CAT_ID":"44920","APOAPSIS":"548.524","DECAY_DATE":null,"EPOCH":"2021-11-18T20:30:34.339968","REV_AT_EPOCH":"10293","FILE":"3218669","OBJECT_TYPE":"PAYLOAD","SITE":"AFETR","TIME_SYSTEM":"UTC","COUNTRY_CODE":"US","MEAN_MOTION_DOT":"-0.00000317","MEAN_ANOMALY":"286.5052","PERIAPSIS":"545.921","MEAN_ELEMENT_THEORY":"SGP4","TLE_LINE2":"2 44920  53.0540 202.8640 0001879  73.6143 286.5052 15.06397144102932","RCS_SIZE":"LARGE","CLASSIFICATION_TYPE":"U","LAUNCH_DATE":"2020-01-07","EPHEMERIS_TYPE":"0","ARG_OF_PERICENTER":"73.6143","OBJECT_NAME":"STARLINK-1102","ECCENTRICITY":"0.00018790","BSTAR":"-0.00000234950000","CENTER_NAME":"EARTH","MEAN_MOTION_DDOT":"0.0000000000000","INCLINATION":"53.0540","OBJECT_ID":"2020-001G","ELEMENT_SET_NO":"999","MEAN_MOTION":"15.06397144","RA_OF_ASC_NODE":"202.8640","PERIOD":"95.592","TLE_LINE1":"1 44920U 20001G   21322.85456412 -.00000317  00000-0 -23495-5 0  9998","REF_FRAME":"TEME","SEMIMAJOR_AXIS":"6925.357"},{"MEAN_ANOMALY":"282.2802","PERIAPSIS":"548.407","MEAN_ELEMENT_THEORY":"SGP4","RCS_SIZE":"LARGE","TLE_LINE2":"2 44921  52.9987 202.7902 0001879  77.8397 282.2802 15.05586311102912","CLASSIFICATION_TYPE":"U","ARG_OF_PERICENTER":"77.8397","EPHEMERIS_TYPE":"0","LAUNCH_DATE":"2020-01-07","MEAN_MOTION_DDOT":"0.0000000000000","CENTER_NAME":"EARTH","BSTAR":"0.00004767500000","ECCENTRICITY":"0.00018790","OBJECT_NAME":"STARLINK-1103","ELEMENT_SET_NO":"999","INCLINATION":"52.9987","OBJECT_ID":"2020-001H","SEMIMAJOR_AXIS":"6927.844","TLE_LINE1":"1 44921U 20001H   21322.87161557  .00000415  00000-0  47675-4 0  9996","PERIOD":"95.644","REF_FRAME":"TEME","RA_OF_ASC_NODE":"202.7902","MEAN_MOTION":"15.05586311","APOAPSIS":"551.010","DECAY_DATE":null,"NORAD_CAT_ID":"44921","GP_ID":"190037424","EPOCH":"2021-11-18T20:55:07.585248","REV_AT_EPOCH":"10291","OBJECT_TYPE":"PAYLOAD","FILE":"3218669","TIME_SYSTEM":"UTC","SITE":"AFETR","COUNTRY_CODE":"US","MEAN_MOTION_DOT":"0.00000415"},{"GP_ID":"190037675","NORAD_CAT_ID":"44922","DECAY_DATE":null,"APOAPSIS":"548.550","EPOCH":"2021-11-18T17:03:34.302816","REV_AT_EPOCH":"10291","FILE":"3218669","OBJECT_TYPE":"PAYLOAD","SITE":"AFETR","TIME_SYSTEM":"UTC","COUNTRY_CODE":"US","MEAN_MOTION_DOT":"0.00000871","MEAN_ANOMALY":"283.6792","PERIAPSIS":"545.927","MEAN_ELEMENT_THEORY":"SGP4","TLE_LINE2":"2 44922  53.0523 203.5102 0001894  76.4408 283.6792 15.06391850102913","RCS_SIZE":"LARGE","CLASSIFICATION_TYPE":"U","EPHEMERIS_TYPE":"0","LAUNCH_DATE":"2020-01-07","ARG_OF_PERICENTER":"76.4408","ECCENTRICITY":"0.00018940","OBJECT_NAME":"STARLINK-1104","BSTAR":"0.00007741600000","CENTER_NAME":"EARTH","MEAN_MOTION_DDOT":"0.0000000000000","INCLINATION":"53.0523","OBJECT_ID":"2020-001J","ELEMENT_SET_NO":"999","MEAN_MOTION":"15.06391850","RA_OF_ASC_NODE":"203.5102","TLE_LINE1":"1 44922U 20001J   21322.71081369  .00000871  00000-0  77416-4 0  9994","REF_FRAME":"TEME","PERIOD":"95.593","SEMIMAJOR_AXIS":"6925.374"}];
